[{"OBJECT_NAME":"FLOCK 4H-25","OBJECT_ID":"2025-276BQ","EPOCH":"2026-03-09T18:21:52.055712","MEAN_MOTION":15.19480848,"ECCENTRICITY":8.716e-5,"INCLINATION":97.4262,"RA_OF_ASC_NODE":144.1192,"ARG_OF_PERICENTER":117.3208,"MEAN_ANOMALY":242.8115,"EPHEMERIS_TYPE":0,"CLASSIFICATION_TYPE":"U","NORAD_CAT_ID":66728,"ELEMENT_SET_NO":999,"REV_AT_EPOCH":1461,"BSTAR":0.00039445995,"MEAN_MOTION_DOT":8.305e-5,"MEAN_MOTION_DDOT":0},{"OBJECT_NAME":"DEAR-5","OBJECT_ID":"2025-296B","EPOCH":"2026-03-09T23:49:47.465472","MEAN_MOTION":15.17623217,"ECCENTRICITY":0.00202983,"INCLINATION":41.3572,"RA_OF_ASC_NODE":323.7156,"ARG_OF_PERICENTER":262.6695,"MEAN_ANOMALY":97.1819,"EPHEMERIS_TYPE":0,"CLASSIFICATION_TYPE":"U","NORAD_CAT_ID":67070,"ELEMENT_SET_NO":999,"REV_AT_EPOCH":1320,"BSTAR":0.00032921308,"MEAN_MOTION_DOT":6.585e-5,"MEAN_MOTION_DDOT":0}]
